NORAD_CAT_ID,OBJECT_NAME,OBJECT_TYPE,EPOCH,MEAN_MOTION,ECCENTRICITY,INCLINATION,RA_OF_ASC_NODE,ARG_OF_PERICENTER,MEAN_ANOMALY,BSTAR,MEAN_MOTION_DOT,MEAN_MOTION_DDOT,TLE_LINE0,TLE_LINE1,TLE_LINE2,SEMIMAJOR_AXIS,PERIOD,APOGEE,PERIGEE,DECAYED
55316.0,STARLINK-5257,PAYLOAD,2023-09-22 16:32:55,14.98329575,0.000314,69.9986,111.0521,265.8756,94.2044,0.00014241,1.607e-05,0.0,0 STARLINK-5257,1 55316U 23010AZ  23265.68953695  .00001607  00000-0  14241-3 0  9994,2 55316  69.9986 111.0521 0003140 265.8756  94.2044 14.98329575 38802,6950.194,96.107,574.242,569.877,0.0
55316.0,STARLINK-5257,PAYLOAD,2023-09-22 21:21:20,14.98331712,0.0003113,69.9987,110.547,268.1539,91.9264,0.00015973,1.813e-05,0.0,0 STARLINK-5257,1 55316U 23010AZ  23265.88981523  .00001813  00000-0  15973-3 0  9999,2 55316  69.9987 110.5470 0003113 268.1539  91.9264 14.98331712 40015,6950.188,96.107,574.216,569.889,0.0
55316.0,STARLINK-5257,PAYLOAD,2023-09-22 22:57:28,14.98332939,0.0003109,69.9987,110.3787,268.463,91.6173,0.00016964,1.932e-05,0.0,0 STARLINK-5257,1 55316U 23010AZ  23265.95657411  .00001932  00000-0  16964-3 0  9996,2 55316  69.9987 110.3787 0003109 268.4630  91.6173 14.98332939 40023,6950.184,96.107,574.21,569.888,0.0
55316.0,STARLINK-5257,PAYLOAD,2023-09-23 19:47:13,14.98328029,0.0003079,69.9989,108.1904,268.6216,91.459,-2.8605e-05,-4.34e-06,0.0,0 STARLINK-5257,1 55316U 23010AZ  23266.82446243 -.00000434  00000-0 -28605-4 0  9996,2 55316  69.9989 108.1904 0003079 268.6216  91.4590 14.98328029 38976,6950.199,96.107,574.204,569.924,0.0
55316.0,STARLINK-5257,PAYLOAD,2023-09-24 13:24:42,14.98332402,0.0002981,69.9991,106.3391,268.9072,91.1745,-7.2043e-05,-9.53e-06,0.0,0 STARLINK-5257,1 55316U 23010AZ  23267.55882038 -.00000953  00000-0 -72043-4 0  9994,2 55316  69.9991 106.3391 0002981 268.9072  91.1745 14.98332402 40267,6950.185,96.107,574.122,569.979,0.0
55316.0,STARLINK-5257,PAYLOAD,2023-09-24 21:25:22,14.98331685,0.0003006,69.9991,105.4973,268.9144,91.167,-7.2242e-05,-9.55e-06,0.0,0 STARLINK-5257,1 55316U 23010AZ  23267.89262025 -.00000955  00000-0 -72242-4 0  9992,2 55316  69.9991 105.4973 0003006 268.9144  91.1670 14.98331685 40317,6950.188,96.107,574.142,569.963,0.0
55316.0,STARLINK-5257,PAYLOAD,2023-09-24 23:01:30,14.98331788,0.0003003,69.9992,105.329,268.9682,91.1133,-6.9028e-05,-9.17e-06,0.0,0 STARLINK-5257,1 55316U 23010AZ  23267.95938004 -.00000917  00000-0 -69028-4 0  9992,2 55316  69.9992 105.3290 0003003 268.9682  91.1133 14.98331788 39140,6950.187,96.107,574.14,569.965,0.0
55316.0,STARLINK-5257,PAYLOAD,2023-09-25 13:26:42,14.98332254,0.0003095,69.999,103.8135,270.446,89.6344,5.063e-05,5.11e-06,0.0,0 STARLINK-5257,1 55316U 23010AZ  23268.56021530  .00000511  00000-0  50630-4 0  9994,2 55316  69.9990 103.8135 0003095 270.4460  89.6344 14.98332254 40419,6950.186,96.107,574.202,569.9,0.0
55316.0,STARLINK-5257,PAYLOAD,2023-09-25 21:27:22,14.98334757,0.0003067,69.999,102.9718,270.0282,90.0525,7.7617e-05,8.33e-06,0.0,0 STARLINK-5257,1 55316U 23010AZ  23268.89401233  .00000833  00000-0  77617-4 0  9993,2 55316  69.9990 102.9718 0003067 270.0282  90.0525 14.98334757 40465,6950.178,96.107,574.175,569.912,0.0
55316.0,STARLINK-5257,PAYLOAD,2023-09-25 23:03:30,14.9833542,0.0003079,69.9989,102.8034,270.2022,89.8784,8.1663e-05,8.82e-06,0.0,0 STARLINK-5257,1 55316U 23010AZ  23268.96077159  .00000882  00000-0  81663-4 0  9997,2 55316  69.9989 102.8034 0003079 270.2022  89.8784 14.98335420 39290,6950.176,96.107,574.181,569.901,0.0
55316.0,STARLINK-5257,PAYLOAD,2023-09-26 15:04:52,14.98325153,0.0002972,69.9991,101.1203,269.6734,90.4085,-2.048e-05,-3.37e-06,0.0,0 STARLINK-5257,1 55316U 23010AZ  23269.62838072 -.00000337  00000-0 -20480-4 0  9997,2 55316  69.9991 101.1203 0002972 269.6734  90.4085 14.98325153 40573,6950.208,96.107,574.138,570.007,0.0
55316.0,STARLINK-5257,PAYLOAD,2023-09-26 18:17:08,14.98324203,0.0002992,69.9988,100.7831,270.775,89.3066,-3.2998e-05,-4.87e-06,0.0,0 STARLINK-5257,1 55316U 23010AZ  23269.76190207 -.00000487  00000-0 -32998-4 0  9996,2 55316  69.9988 100.7831 0002992 270.7750  89.3066 14.98324203 39416,6950.211,96.107,574.155,569.996,0.0
55316.0,STARLINK-5257,PAYLOAD,2023-09-26 21:29:24,14.9832439,0.0002988,69.9988,100.4465,270.8155,89.2661,-3.0298e-05,-4.54e-06,0.0,0 STARLINK-5257,1 55316U 23010AZ  23269.89542224 -.00000454  00000-0 -30298-4 0  9995,2 55316  69.9988 100.4465 0002988 270.8155  89.2661 14.98324390 40612,6950.21,96.107,574.152,569.999,0.0
55316.0,STARLINK-5257,PAYLOAD,2023-09-27 13:30:44,14.9833332,0.0003005,69.9985,98.763,271.1671,88.9144,-2.9053e-05,-4.4e-06,0.0,0 STARLINK-5257,1 55316U 23010AZ  23270.56301708 -.00000440  00000-0 -29053-4 0  9993,2 55316  69.9985  98.7630 0003005 271.1671  88.9144 14.98333320 40716,6950.183,96.107,574.136,569.959,0.0
55316.0,STARLINK-5257,PAYLOAD,2023-09-27 19:55:16,14.98332836,0.0003016,69.9987,98.0897,271.2383,88.8431,-2.9093e-05,-4.4e-06,0.0,0 STARLINK-5257,1 55316U 23010AZ  23270.83005688 -.00000440  00000-0 -29093-4 0  9995,2 55316  69.9987  98.0897 0003016 271.2383  88.8431 14.98332836 39570,6950.184,96.107,574.145,569.953,0.0
55316.0,STARLINK-5257,PAYLOAD,2023-09-28 15:08:53,14.98330043,0.0003099,69.9986,96.0701,271.2773,88.8031,7.4523e-05,7.96e-06,0.0,0 STARLINK-5257,1 55316U 23010AZ  23271.63117454  .00000796  00000-0  74523-4 0  9999,2 55316  69.9986  96.0701 0003099 271.2773  88.8031 14.98330043 40874,6950.193,96.107,574.212,569.904,0.0
55316.0,STARLINK-5257,PAYLOAD,2023-09-28 21:33:25,14.98330177,0.0003114,69.9988,95.3968,271.4409,88.6393,6.9375e-05,7.35e-06,0.0,0 STARLINK-5257,1 55316U 23010AZ  23271.89821450  .00000735  00000-0  69375-4 0  9997,2 55316  69.9988  95.3968 0003114 271.4409  88.6393 14.98330177 40911,6950.192,96.107,574.222,569.893,0.0
55316.0,STARLINK-5257,PAYLOAD,2023-09-28 23:09:33,14.98331237,0.0003096,69.9989,95.2284,269.9887,90.0917,8.0014e-05,8.62e-06,0.0,0 STARLINK-5257,1 55316U 23010AZ  23271.96497337  .00000862  00000-0  80014-4 0  9992,2 55316  69.9989  95.2284 0003096 269.9887  90.0917 14.98331237 39749,6950.189,96.107,574.206,569.902,0.0
55316.0,STARLINK-5257,PAYLOAD,2023-09-29 13:34:46,14.98332153,0.0003005,69.9993,93.7138,268.0835,91.998,2.4818e-06,-6.3e-07,0.0,0 STARLINK-5257,1 55316U 23010AZ  23272.56581430 -.00000063  00000-0  24818-5 0  9992,2 55316  69.9993  93.7138 0003005 268.0835  91.9980 14.98332153 41019,6950.186,96.107,574.14,569.963,0.0
55316.0,STARLINK-5257,PAYLOAD,2023-09-29 19:59:18,14.98332044,0.0002981,69.9995,93.0406,267.3961,92.6857,6.7449e-06,-1.3e-07,0.0,0 STARLINK-5257,1 55316U 23010AZ  23272.83285368 -.00000013  00000-0  67449-5 0  9995,2 55316  69.9995  93.0406 0002981 267.3961  92.6857 14.98332044 41050,6950.187,96.107,574.123,569.98,0.0
55316.0,STARLINK-5257,PAYLOAD,2023-09-30 18:25:11,14.98328225,0.0002896,70.0,90.6845,263.5785,96.5044,-4.5113e-05,-6.31e-06,0.0,0 STARLINK-5257,1 55316U 23010AZ  23273.76749670 -.00000631  00000-0 -45113-4 0  9999,2 55316  70.0000  90.6845 0002896 263.5785  96.5044 14.98328225 40019,6950.198,96.107,574.076,570.051,0.0
55316.0,STARLINK-5257,PAYLOAD,2023-10-01 13:38:48,14.98332854,0.0003096,69.9996,88.6631,270.4582,89.6222,7.298e-06,-6e-08,0.0,0 STARLINK-5257,1 55316U 23010AZ  23274.56861198 -.00000006  00000-0  72980-5 0  9996,2 55316  69.9996  88.6631 0003096 270.4582  89.6222 14.98332854 41313,6950.184,96.107,574.201,569.897,0.0
55316.0,STARLINK-5257,PAYLOAD,2023-10-01 18:27:12,14.98333751,0.0003057,69.9992,88.1581,269.3091,90.7717,3.6274e-05,3.4e-06,0.0,0 STARLINK-5257,1 55316U 23010AZ  23274.76889032  .00000340  00000-0  36274-4 0  9990,2 55316  69.9992  88.1581 0003057 269.3091  90.7717 14.98333751 40168,6950.181,96.107,574.171,569.922,0.0
55316.0,STARLINK-5257,PAYLOAD,2023-10-01 20:03:20,14.98336156,0.0003075,69.9991,87.9894,269.4364,90.6443,3.0937e-05,2.76e-06,0.0,0 STARLINK-5257,1 55316U 23010AZ  23274.83564876  .00000276  00000-0  30937-4 0  9992,2 55316  69.9991  87.9894 0003075 269.4364  90.6443 14.98336156 41354,6950.174,96.107,574.176,569.902,0.0
55316.0,STARLINK-5257,PAYLOAD,2023-10-02 12:04:41,14.98320844,0.0003397,69.9994,86.3067,273.5254,86.5517,-7.0829e-05,-9.38e-06,0.0,0 STARLINK-5257,1 55316U 23010AZ  23275.50326095 -.00000938  00000-0 -70829-4 0  9997,2 55316  69.9994  86.3067 0003397 273.5254  86.5517 14.98320844 40276,6950.221,96.108,574.447,569.725,0.0
55316.0,STARLINK-5257,PAYLOAD,2023-10-02 20:05:22,14.983199,0.0003008,70.0,85.4657,267.1756,92.9059,-6.5782e-05,-8.78e-06,0.0,0 STARLINK-5257,1 55316U 23010AZ  23275.83706300 -.00000878  00000-0 -65782-4 0  9999,2 55316  70.0000  85.4657 0003008 267.1756  92.9059 14.98319900 41507,6950.224,96.108,574.18,569.998,0.0
55316.0,STARLINK-5257,PAYLOAD,2023-10-03 12:06:42,14.9832774,0.0003226,69.9991,83.7816,269.4286,90.6503,-3.232e-05,-4.79e-06,0.0,0 STARLINK-5257,1 55316U 23010AZ  23276.50465894 -.00000479  00000-0 -32320-4 0  9993,2 55316  69.9991  83.7816 0003226 269.4286  90.6503 14.98327740 40426,6950.2,96.107,574.307,569.823,0.0
55316.0,STARLINK-5257,PAYLOAD,2023-10-03 13:42:50,14.98327998,0.0003211,69.9993,83.613,270.9397,89.1394,-4.1016e-05,-5.82e-06,0.0,0 STARLINK-5257,1 55316U 23010AZ  23276.57141923 -.00000582  00000-0 -41016-4 0  9991,2 55316  69.9993  83.6130 0003211 270.9397  89.1394 14.98327998 41618,6950.199,96.107,574.296,569.832,0.0
55316.0,STARLINK-5257,PAYLOAD,2023-10-03 20:07:22,14.98332501,0.000302,69.9996,82.9398,271.9401,88.1412,-3.8446e-05,-5.52e-06,0.0,0 STARLINK-5257,1 55316U 23010AZ  23276.83845657 -.00000552  00000-0 -38446-4 0  9995,2 55316  69.9996  82.9398 0003020 271.9401  88.1412 14.98332501 41654,6950.185,96.107,574.149,569.951,0.0
55316.0,STARLINK-5257,PAYLOAD,2023-10-04 13:44:50,14.98333091,0.000326,69.9995,81.0879,272.7594,87.3192,0.00016193,1.84e-05,0.0,0 STARLINK-5257,1 55316U 23010AZ  23277.57280908  .00001840  00000-0  16193-3 0  9992,2 55316  69.9995  81.0879 0003260 272.7594  87.3192 14.98333091 41768,6950.183,96.107,574.314,569.783,0.0
